STARLINK-31972          
1 59923U 24106B   24181.25001157 -.00003268  00000+0 -49958-4 0  9997
2 59923  42.9993 255.1760 0001675 276.1116  82.0915 15.50546278  5727
STARLINK-31958          
1 59924U 24106C   24181.91667824 -.00036797  00000+0 -87738-3 0  9990
2 59924  42.9995 251.3843 0001306 256.3919 183.0293 15.40716822  5704
STARLINK-31959          
1 59925U 24106D   24181.91667824 -.00045421  00000+0 -10858-2 0  9993
2 59925  42.9998 251.4441 0001404 264.1439 150.4354 15.40720623  5706
STARLINK-31957          
1 59926U 24106E   24181.91667824  .00069275  00000+0  16545-2 0  9994
2 59926  42.9994 251.3530 0001593 309.0396 142.8738 15.40628864  5739
STARLINK-31968          
1 59927U 24106F   24181.91667824 -.02240078  00000+0 -54063-1 0  9997
2 59927  42.9995 251.3011 0001264 284.1106 189.2806 15.43714244  5756
STARLINK-31970          
1 59928U 24106G   24181.91667824  .00015480  00000+0  26931-3 0  9996
2 59928  42.9994 251.2521 0001714 248.9115 244.6075 15.50563121  5746
STARLINK-31932          
1 59929U 24106H   24181.57119171 -.01653157  00000+0 -27693-1 0  9992
2 59929  42.9989 250.5735 0001694 263.6570  96.4099 15.54064152  5671
STARLINK-31956          
1 59930U 24106J   24181.91667824 -.01841215  00000+0 -34633-1 0  9991
2 59930  42.9994 251.2465 0000811 298.0447 197.2165 15.51258375  5709
STARLINK-31960          
1 59931U 24106K   24181.58334491 -.02142264  00000+0 -48259-1 0  9994
2 59931  42.9994 253.2126 0001345 289.3199 137.5820 15.46129585  5727
STARLINK-31432          
1 59932U 24106L   24181.58334491  .00075566  00000+0  12836-2 0  9994
2 59932  42.9988 253.2085 0001507 287.1083 140.3503 15.50532584  5725
STARLINK-31853          
1 59933U 24106M   24181.91667824 -.00467057  00000+0 -83565-2 0  9990
2 59933  42.9995 251.2318 0001392 258.7193 242.3404 15.50857391  5706
STARLINK-31971          
1 59934U 24106N   24181.91667824 -.01771755  00000+0 -23136-1 0  9992
2 59934  42.9997 247.6057 0001155 272.4231 236.8195 15.60856233  5576
STARLINK-31301          
1 59935U 24106P   24181.58334491  .00655763  00000+0  35633-2 0  9990
2 59935  42.9985 251.8056 0003640 354.5190 282.7101 15.77383925  5777
STARLINK-31962          
1 59936U 24106Q   24181.91667824  .00108125  00000+0  18236-2 0  9992
2 59936  42.9993 251.2213 0001296 283.4347 221.4835 15.50577906  5707
STARLINK-31879          
1 59937U 24106R   24181.91667824 -.00145473  00000+0 -25088-2 0  9995
2 59937  42.9992 251.2117 0001238 240.9503 267.8389 15.50705869  5752
STARLINK-31876          
1 59938U 24106S   24181.58334491 -.02141663  00000+0 -42395-1 0  9998
2 59938  42.9992 253.1690 0001330 270.9460 172.8777 15.49791944  5717
STARLINK-31955          
1 59939U 24106T   24181.24571292 -.01085196  00000+0 -21348-1 0  9996
2 59939  42.9983 255.1327 0002877 329.0758  30.9932 15.49330547  5647
STARLINK-31946          
1 59940U 24106U   24181.91667824 -.00144508  00000+0 -24898-2 0  9995
2 59940  42.9993 251.2017 0001435 284.1747 228.4055 15.50727913  5752
STARLINK-31948          
1 59941U 24106V   24181.91667824 -.01762046  00000+0 -31194-1 0  9996
2 59941  42.9997 248.5390 0001093 277.9004 218.5680 15.52769944  5729
STARLINK-31900          
1 59942U 24106W   24181.91667824 -.00060583  00000+0 -14535-2 0  9994
2 59942  42.9994 251.3183 0002007 260.2737 204.0766 15.40719984  5690
STARLINK-31973          
1 59943U 24106X   24181.58334491  .00116583  00000+0  19652-2 0  9994
2 59943  42.9990 253.1385 0001475 281.4141 174.0830 15.50555945  5721
STARLINK-31966          
1 59944U 24106Y   24181.91667824 -.00070698  00000+0 -12082-2 0  9999
2 59944  42.9993 251.1915 0001452 277.9529 238.5720 15.50624386  5750
STARLINK-11145 [DTC]    
1 59945U 24107A   24181.82349567  .00119003  00000+0  71983-3 0  9990
2 59945  53.1578  60.7462 0001014 114.5429 245.5697 15.76764120  5068
STARLINK-11121 [DTC]    
1 59946U 24107B   24181.81956958  .00081577  00000+0  50125-3 0  9997
2 59946  53.1529  60.7157 0001650  17.6189 342.4888 15.76564539  5126
STARLINK-11113 [DTC]    
1 59947U 24107C   24181.58334491 -.00584402  00000+0 -36026-2 0  9994
2 59947  53.1523  60.8351 0000112 199.8970  50.9030 15.78028840  5066
STARLINK-11123 [DTC]    
1 59948U 24107D   24180.93019266  .00170962  00000+0  10148-2 0  9990
2 59948  53.1524  65.1242 0004557 199.9556 160.1287 15.77004559  4981
STARLINK-11138 [DTC]    
1 59949U 24107E   24181.68090251  .00143740  00000+0  86254-3 0  9993
2 59949  53.1573  61.2705 0001575 109.4093 250.7098 15.76857194  5095
STARLINK-11130 [DTC]    
1 59950U 24107F   24181.68669219  .00125039  00000+0  75976-3 0  9991
2 59950  53.1583  61.3085 0000549 134.3208 225.7858 15.76639703  5040
STARLINK-11126 [DTC]    
1 59951U 24107G   24181.74804054  .00061549  00000+0  37784-3 0  9997
2 59951  53.1562  60.9786 0001517 349.6096  10.4893 15.76698002  5105
STARLINK-11124 [DTC]    
1 59952U 24107H   24180.98542073  .00061549  00000+0  37964-3 0  9993
2 59952  53.1519  64.7510 0001090 129.8858 230.2259 15.76590317  4999
STARLINK-11143 [DTC]    
1 59953U 24107J   24181.68067364  .00035613  00000+0  22171-3 0  9994
2 59953  53.1513  61.2586 0001822 156.5466 203.5638 15.76621789  5043
STARLINK-11133 [DTC]    
1 59954U 24107K   24181.67865286  .00066203  00000+0  40621-3 0  9992
2 59954  53.1541  61.2549 0000499  21.5248 338.5793 15.76680116  5042
STARLINK-11144 [DTC]    
1 59955U 24107L   24181.74001468  .00054901  00000+0  33729-3 0  9998
2 59955  53.1539  60.9236 0000123 192.8631 167.2387 15.76727047  5109
STARLINK-11134 [DTC]    
1 59956U 24107M   24181.73798040  .00042225  00000+0  26103-3 0  9991
2 59956  53.1556  60.9184 0001620   5.4211 354.6827 15.76699993  4723
STARLINK-11142 [DTC]    
1 59957U 24107N   24181.67258447  .00126347  00000+0  76301-3 0  9990
2 59957  53.1571  61.2171 0002078 107.5794 252.5454 15.76773057  5041
STARLINK-31995          
1 59958U 24107P   24181.91667824 -.00037331  00000+0 -66587-3 0  9992
2 59958  53.1594  61.0902 0001034  84.5387  44.6068 15.49329416  5014
STARLINK-31989          
1 59959U 24107Q   24181.91667824 -.02191186  00000+0 -49674-1 0  9990
2 59959  53.1595  61.1011 0000916  85.1760  38.6274 15.46259000  5131
STARLINK-31856          
1 59960U 24107R   24181.91667824 -.00011713  00000+0 -20295-3 0  9997
2 59960  53.1594  61.0819 0000954  91.0184  41.5965 15.49295605  5128
STARLINK-31993          
1 59961U 24107S   24181.58334491  .00059039  00000+0  10625-2 0  9998
2 59961  53.1593  62.6786 0000852  98.3772 332.2675 15.49283850  4966
STARLINK-31980          
1 59962U 24107T   24181.91667824 -.00066128  00000+0 -11895-2 0  9994
2 59962  53.1595  61.0792 0001135  72.0648  62.2331 15.49344105  5135
STARLINK-31991          
1 59963U 24107U   24181.58334491  .00054432  00000+0  97996-3 0  9999
2 59963  53.1594  62.6673 0001107 124.6724 311.0930 15.49307963  5139
STARLINK-31979          
1 59964U 24107V   24181.58334491  .00033390  00000+0  60564-3 0  9991
2 59964  53.1594  62.6649 0001078  62.4006  15.0826 15.49318312  5014
PREFIRE-1               
1 59965U 24108A   24181.38832923  .00007191  00000+0  42183-3 0  9991
2 59965  97.4533 331.8954 0013305 214.2662 145.7711 15.11980551  3662
ELECTRON KICK STAGE R/B 
1 59967U 24108C   24181.37233186  .00027928  00000+0  10532-2 0  9990
2 59967  97.4384 332.3261 0050904 298.8868  60.7268 15.25784941  3682
STARLINER CFT-1         
1 59968U 24109A   24181.51584434  .00017611  00000+0  31654-3 0  9990
2 59968  51.6387 254.2286 0011150  19.9131 340.2290 15.49884171  3551
2024-110A               
1 60012U 24110A   24181.83608259  .00012292  00000+0  83526-3 0  9996
2 60012  97.6015 268.2448 0013527 201.3210 158.7456 15.06432820  3550
2024-110B               
1 60013U 24110B   24181.83307252  .00009629  00000+0  65301-3 0  9997
2 60013  97.6016 268.2494 0012743 206.5945 153.4630 15.06582321  3552
2024-110C               
1 60014U 24110C   24181.83190326  .00005229  00000+0  35675-3 0  9993
2 60014  97.6017 268.2511 0013008 208.5366 151.5150 15.06576623  3552
2024-110D               
1 60015U 24110D   24181.82946387  .00009743  00000+0  65638-3 0  9996
2 60015  97.6015 268.2542 0013601 209.9179 150.1273 15.06813993  3545
STARLINK-31978          
1 60016U 24111A   24181.58334491 -.01677836  00000+0 -17718-1 0  9999
2 60016  53.1536  74.4320 0000857 122.4208  79.1185 15.66756194  4181
STARLINK-31987          
1 60017U 24111B   24181.91667824 -.01729500  00000+0 -19260-1 0  9996
2 60017  53.1559  72.7957 0000614  95.1179 188.6308 15.65556117  4295
STARLINK-31984          
1 60018U 24111C   24181.58334491 -.01678582  00000+0 -17709-1 0  9990
2 60018  53.1533  74.4245 0000787 117.5733  87.5568 15.66781655  4139
STARLINK-31986          
1 60019U 24111D   24181.58334491 -.01679997  00000+0 -17719-1 0  9993
2 60019  53.1546  74.4212 0000744  82.6205 124.3503 15.66791710  4296
STARLINK-31883          
1 60020U 24111E   24181.91667824 -.01730835  00000+0 -19258-1 0  9990
2 60020  53.1560  72.7837 0000517  85.8713 203.5090 15.65581431  4281
STARLINK-31967          
1 60021U 24111F   24181.58334491 -.02097303  00000+0 -21972-1 0  9998
2 60021  53.1533  74.4137 0000883 124.9906  85.5454 15.67159080  4318
STARLINK-31982          
1 60022U 24111G   24181.58334491 -.01678905  00000+0 -17684-1 0  9996
2 60022  53.1546  74.4091 0000677 115.8664  96.5985 15.66822664  4295
STARLINK-31992          
1 60023U 24111H   24181.91667824 -.01733792  00000+0 -19258-1 0  9998
2 60023  53.1552  72.7689 0000479  87.4681 209.1889 15.65629953  4346
STARLINK-31990          
1 60024U 24111J   24181.58334491 -.01680297  00000+0 -17692-1 0  9994
2 60024  53.1553  74.4059 0000641 114.5846  99.6933 15.66834985  4283
